ONEWEB-0504             
1 54122U 22138K   25311.13670313  .00000039  00000+0  64134-4 0  9999
2 54122  87.9232 349.1425 0001889 103.5172 256.6171 13.19725508147540
ONEWEB-0505             
1 54123U 22138L   25311.13354182  .00000061  00000+0  12077-3 0  9996
2 54123  87.9237 349.1322 0002144 107.7911 252.3456 13.19726173147520
ONEWEB-0506             
1 54124U 22138M   25311.10826625  .00000084  00000+0  17627-3 0  9991
2 54124  87.9239 349.1344 0001953 101.6582 258.4771 13.19726615147518
ONEWEB-0507             
1 54125U 22138N   25311.12879852  .00000083  00000+0  17583-3 0  9994
2 54125  87.9222 349.1721 0002032 100.4728 259.6634 13.19726474147567
ONEWEB-0508             
1 54126U 22138P   25311.12563519  .00000103  00000+0  22429-3 0  9993
2 54126  87.9227 349.1622 0002222 103.3019 256.8362 13.19727377147547
ONEWEB-0509             
1 54127U 22138Q   25311.17618582  .00000886  00000+0  21803-2 0  9992
2 54127  87.9237 349.1193 0001958 101.3866 258.7487 13.19721979147524
ONEWEB-0510             
1 54128U 22138R   25311.08834652 -.00000074  00000+0 -21378-3 0  9990
2 54128  87.9182 318.7324 0001641  75.6063 284.5253 13.20771445149966
ONEWEB-0511             
1 54129U 22138S   25311.17302578  .00000020  00000+0  17158-4 0  9999
2 54129  87.9237 349.1243 0001647 102.2497 257.8820 13.19726549147559
ONEWEB-0512             
1 54130U 22138T   25311.16512418 -.00000026  00000+0 -97991-4 0  9997
2 54130  87.9225 349.1562 0002035 107.6137 252.5218 13.19726166147529
ONEWEB-0513             
1 54131U 22138U   25311.11080660  .00000010  00000+0 -73281-5 0  9991
2 54131  87.9245 349.1276 0001796 116.6409 243.4908 13.20319315147418
ONEWEB-0514             
1 54132U 22138V   25311.18092566  .00000005  00000+0 -20822-4 0  9993
2 54132  87.9234 349.1347 0001770  94.0364 266.0971 13.19725677147542
ONEWEB-0515             
1 54133U 22138W   25311.30298335  .00000038  00000+0  61662-4 0  9992
2 54133  87.9187 318.6729 0002259  68.9380 291.1995 13.20772758150011
ONEWEB-0516             
1 54134U 22138X   25311.15564950  .00000088  00000+0  18861-3 0  9992
2 54134  87.9217 349.1629 0002008  97.7902 262.3459 13.19725895147543
ONEWEB-0517             
1 54135U 22138Y   25311.13512004  .00000018  00000+0  11686-4 0  9996
2 54135  87.9242 349.1408 0001591  99.9778 260.1535 13.19725366147542
ONEWEB-0518             
1 54136U 22138Z   25311.15407320  .00000006  00000+0 -18164-4 0  9999
2 54136  87.9218 349.1649 0001919  99.6941 260.4408 13.19725910147543
ONEWEB-0519             
1 54137U 22138AA  25311.17934603 -.00000014  00000+0 -67110-4 0  9996
2 54137  87.9242 349.1236 0001667 100.5968 259.5353 13.19725330147559
