[{"OBJECT_NAME":"ONEWEB-0504","OBJECT_ID":"2022-138K","EPOCH":"2025-11-07T03:16:51.150432","MEAN_MOTION":13.19725508,"ECCENTRICITY":0.00018895,"INCLINATION":87.9232,"RA_OF_ASC_NODE":349.1425,"ARG_OF_PERICENTER":103.5172,"MEAN_ANOMALY":256.6171,"EPHEMERIS_TYPE":0,"CLASSIFICATION_TYPE":"U","NORAD_CAT_ID":54122,"ELEMENT_SET_NO":999,"REV_AT_EPOCH":14754,"BSTAR":6.4134433e-5,"MEAN_MOTION_DOT":3.9e-7,"MEAN_MOTION_DDOT":0},{"OBJECT_NAME":"ONEWEB-0505","OBJECT_ID":"2022-138L","EPOCH":"2025-11-07T03:12:18.013248","MEAN_MOTION":13.19726173,"ECCENTRICITY":0.00021445,"INCLINATION":87.9237,"RA_OF_ASC_NODE":349.1322,"ARG_OF_PERICENTER":107.7911,"MEAN_ANOMALY":252.3456,"EPHEMERIS_TYPE":0,"CLASSIFICATION_TYPE":"U","NORAD_CAT_ID":54123,"ELEMENT_SET_NO":999,"REV_AT_EPOCH":14752,"BSTAR":0.00012077319,"MEAN_MOTION_DOT":6.1e-7,"MEAN_MOTION_DDOT":0},{"OBJECT_NAME":"ONEWEB-0506","OBJECT_ID":"2022-138M","EPOCH":"2025-11-07T02:35:54.204000","MEAN_MOTION":13.19726615,"ECCENTRICITY":0.00019539,"INCLINATION":87.9239,"RA_OF_ASC_NODE":349.1344,"ARG_OF_PERICENTER":101.6582,"MEAN_ANOMALY":258.4771,"EPHEMERIS_TYPE":0,"CLASSIFICATION_TYPE":"U","NORAD_CAT_ID":54124,"ELEMENT_SET_NO":999,"REV_AT_EPOCH":14751,"BSTAR":0.00017626562,"MEAN_MOTION_DOT":8.4e-7,"MEAN_MOTION_DDOT":0},{"OBJECT_NAME":"ONEWEB-0507","OBJECT_ID":"2022-138N","EPOCH":"2025-11-07T03:05:28.192128","MEAN_MOTION":13.19726474,"ECCENTRICITY":0.00020323,"INCLINATION":87.9222,"RA_OF_ASC_NODE":349.1721,"ARG_OF_PERICENTER":100.4728,"MEAN_ANOMALY":259.6634,"EPHEMERIS_TYPE":0,"CLASSIFICATION_TYPE":"U","NORAD_CAT_ID":54125,"ELEMENT_SET_NO":999,"REV_AT_EPOCH":14756,"BSTAR":0.0001758267,"MEAN_MOTION_DOT":8.3e-7,"MEAN_MOTION_DDOT":0},{"OBJECT_NAME":"ONEWEB-0508","OBJECT_ID":"2022-138P","EPOCH":"2025-11-07T03:00:54.880416","MEAN_MOTION":13.19727377,"ECCENTRICITY":0.00022227,"INCLINATION":87.9227,"RA_OF_ASC_NODE":349.1622,"ARG_OF_PERICENTER":103.3019,"MEAN_ANOMALY":256.8362,"EPHEMERIS_TYPE":0,"CLASSIFICATION_TYPE":"U","NORAD_CAT_ID":54126,"ELEMENT_SET_NO":999,"REV_AT_EPOCH":14754,"BSTAR":0.00022429175,"MEAN_MOTION_DOT":1.03e-6,"MEAN_MOTION_DDOT":0},{"OBJECT_NAME":"ONEWEB-0509","OBJECT_ID":"2022-138Q","EPOCH":"2025-11-07T04:13:42.454848","MEAN_MOTION":13.19721979,"ECCENTRICITY":0.00019581,"INCLINATION":87.9237,"RA_OF_ASC_NODE":349.1193,"ARG_OF_PERICENTER":101.3866,"MEAN_ANOMALY":258.7487,"EPHEMERIS_TYPE":0,"CLASSIFICATION_TYPE":"U","NORAD_CAT_ID":54127,"ELEMENT_SET_NO":999,"REV_AT_EPOCH":14752,"BSTAR":0.0021802567,"MEAN_MOTION_DOT":8.86e-6,"MEAN_MOTION_DDOT":0},{"OBJECT_NAME":"ONEWEB-0510","OBJECT_ID":"2022-138R","EPOCH":"2025-11-07T02:07:13.139328","MEAN_MOTION":13.20771445,"ECCENTRICITY":0.00016413,"INCLINATION":87.9182,"RA_OF_ASC_NODE":318.7324,"ARG_OF_PERICENTER":75.6063,"MEAN_ANOMALY":284.5253,"EPHEMERIS_TYPE":0,"CLASSIFICATION_TYPE":"U","NORAD_CAT_ID":54128,"ELEMENT_SET_NO":999,"REV_AT_EPOCH":14996,"BSTAR":-0.00021377919,"MEAN_MOTION_DOT":-7.4e-7,"MEAN_MOTION_DDOT":0},{"OBJECT_NAME":"ONEWEB-0511","OBJECT_ID":"2022-138S","EPOCH":"2025-11-07T04:09:09.427392","MEAN_MOTION":13.19726549,"ECCENTRICITY":0.0001647,"INCLINATION":87.9237,"RA_OF_ASC_NODE":349.1243,"ARG_OF_PERICENTER":102.2497,"MEAN_ANOMALY":257.882,"EPHEMERIS_TYPE":0,"CLASSIFICATION_TYPE":"U","NORAD_CAT_ID":54129,"ELEMENT_SET_NO":999,"REV_AT_EPOCH":14755,"BSTAR":1.7157667e-5,"MEAN_MOTION_DOT":2.0e-7,"MEAN_MOTION_DDOT":0},{"OBJECT_NAME":"ONEWEB-0512","OBJECT_ID":"2022-138T","EPOCH":"2025-11-07T03:57:46.729152","MEAN_MOTION":13.19726166,"ECCENTRICITY":0.00020357,"INCLINATION":87.9225,"RA_OF_ASC_NODE":349.1562,"ARG_OF_PERICENTER":107.6137,"MEAN_ANOMALY":252.5218,"EPHEMERIS_TYPE":0,"CLASSIFICATION_TYPE":"U","NORAD_CAT_ID":54130,"ELEMENT_SET_NO":999,"REV_AT_EPOCH":14752,"BSTAR":-9.7990643e-5,"MEAN_MOTION_DOT":-2.6e-7,"MEAN_MOTION_DDOT":0},{"OBJECT_NAME":"ONEWEB-0513","OBJECT_ID":"2022-138U","EPOCH":"2025-11-07T02:39:33.690240","MEAN_MOTION":13.20319315,"ECCENTRICITY":0.00017967,"INCLINATION":87.9245,"RA_OF_ASC_NODE":349.1276,"ARG_OF_PERICENTER":116.6409,"MEAN_ANOMALY":243.4908,"EPHEMERIS_TYPE":0,"CLASSIFICATION_TYPE":"U","NORAD_CAT_ID":54131,"ELEMENT_SET_NO":999,"REV_AT_EPOCH":14741,"BSTAR":-7.32813e-6,"MEAN_MOTION_DOT":1.0e-7,"MEAN_MOTION_DDOT":0},{"OBJECT_NAME":"ONEWEB-0514","OBJECT_ID":"2022-138V","EPOCH":"2025-11-07T04:20:31.977024","MEAN_MOTION":13.19725677,"ECCENTRICITY":0.00017701,"INCLINATION":87.9234,"RA_OF_ASC_NODE":349.1347,"ARG_OF_PERICENTER":94.0364,"MEAN_ANOMALY":266.0971,"EPHEMERIS_TYPE":0,"CLASSIFICATION_TYPE":"U","NORAD_CAT_ID":54132,"ELEMENT_SET_NO":999,"REV_AT_EPOCH":14754,"BSTAR":-2.0822468e-5,"MEAN_MOTION_DOT":5.0e-8,"MEAN_MOTION_DDOT":0},{"OBJECT_NAME":"ONEWEB-0515","OBJECT_ID":"2022-138W","EPOCH":"2025-11-07T07:16:17.761440","MEAN_MOTION":13.20772758,"ECCENTRICITY":0.0002259,"INCLINATION":87.9187,"RA_OF_ASC_NODE":318.6729,"ARG_OF_PERICENTER":68.938,"MEAN_ANOMALY":291.1995,"EPHEMERIS_TYPE":0,"CLASSIFICATION_TYPE":"U","NORAD_CAT_ID":54133,"ELEMENT_SET_NO":999,"REV_AT_EPOCH":15001,"BSTAR":6.1661507e-5,"MEAN_MOTION_DOT":3.8e-7,"MEAN_MOTION_DDOT":0},{"OBJECT_NAME":"ONEWEB-0516","OBJECT_ID":"2022-138X","EPOCH":"2025-11-07T03:44:08.116800","MEAN_MOTION":13.19725895,"ECCENTRICITY":0.00020087,"INCLINATION":87.9217,"RA_OF_ASC_NODE":349.1629,"ARG_OF_PERICENTER":97.7902,"MEAN_ANOMALY":262.3459,"EPHEMERIS_TYPE":0,"CLASSIFICATION_TYPE":"U","NORAD_CAT_ID":54134,"ELEMENT_SET_NO":999,"REV_AT_EPOCH":14754,"BSTAR":0.00018860998,"MEAN_MOTION_DOT":8.8e-7,"MEAN_MOTION_DDOT":0},{"OBJECT_NAME":"ONEWEB-0517","OBJECT_ID":"2022-138Y","EPOCH":"2025-11-07T03:14:34.371456","MEAN_MOTION":13.19725366,"ECCENTRICITY":0.00015911,"INCLINATION":87.9242,"RA_OF_ASC_NODE":349.1408,"ARG_OF_PERICENTER":99.9778,"MEAN_ANOMALY":260.1535,"EPHEMERIS_TYPE":0,"CLASSIFICATION_TYPE":"U","NORAD_CAT_ID":54135,"ELEMENT_SET_NO":999,"REV_AT_EPOCH":14754,"BSTAR":1.1686456e-5,"MEAN_MOTION_DOT":1.8e-7,"MEAN_MOTION_DDOT":0},{"OBJECT_NAME":"ONEWEB-0518","OBJECT_ID":"2022-138Z","EPOCH":"2025-11-07T03:41:51.924480","MEAN_MOTION":13.1972591,"ECCENTRICITY":0.00019195,"INCLINATION":87.9218,"RA_OF_ASC_NODE":349.1649,"ARG_OF_PERICENTER":99.6941,"MEAN_ANOMALY":260.4408,"EPHEMERIS_TYPE":0,"CLASSIFICATION_TYPE":"U","NORAD_CAT_ID":54136,"ELEMENT_SET_NO":999,"REV_AT_EPOCH":14754,"BSTAR":-1.8163744e-5,"MEAN_MOTION_DOT":6.0e-8,"MEAN_MOTION_DDOT":0},{"OBJECT_NAME":"ONEWEB-0519","OBJECT_ID":"2022-138AA","EPOCH":"2025-11-07T04:18:15.496992","MEAN_MOTION":13.1972533,"ECCENTRICITY":0.00016676,"INCLINATION":87.9242,"RA_OF_ASC_NODE":349.1236,"ARG_OF_PERICENTER":100.5968,"MEAN_ANOMALY":259.5353,"EPHEMERIS_TYPE":0,"CLASSIFICATION_TYPE":"U","NORAD_CAT_ID":54137,"ELEMENT_SET_NO":999,"REV_AT_EPOCH":14755,"BSTAR":-6.710984e-5,"MEAN_MOTION_DOT":-1.4e-7,"MEAN_MOTION_DDOT":0}]
